C/2020 PV6 (PANSTARRS),e,128.2392,329.1449,71.3847,41.78616,0.0036488,0.94506159,0.4634,01/31.0/2022,2000,g 10.0,4.0
# From MPEC 2021-N06
C/2020 Q1 (Borisov),e,142.9165,52.4149,9.9022,58.67478,0.0021929,0.97758772,0.0000,08/14.5692/2020,2000,g 14.0,4.0
# From MPEC 2022-A21
C/2020 R2 (PANSTARRS),e,53.2280,195.0933,211.7371,409.8877,0.0001188,0.98855328,0.0000,02/24.5097/2022,2000,g  9.0,4.0
# From MPEC 2022-A21
C/2020 R4 (ATLAS),e,164.4624,323.2745,46.7209,98.64414,0.0010060,0.98957225,0.0000,03/01.9633/2021,2000,g 13.5,4.0
# From MPEC 2020-W26
P/2020 R5 (PANSTARRS),e,11.4516,272.9771,82.4493,4.982992,0.0886072,0.31471478,54.2347,01/31.0/2022,2000,g  9.5,6.0
# From MPEC 2021-Y10
C/2020 R6 (Rankin),e,82.8119,12.1779,272.0040,355.1585,0.0001473,0.99118325,0.0000,09/09.5702/2019,2000,g 11.0,4.0
# From MPEC 2022-A21
C/2020 R7 (ATLAS),e,114.8920,268.2800,347.8276,179566,0.0000000,0.99998354,0.0000,09/16.2038/2022,2000,g  7.0,3.2
# From MPEC 2021-BE3
P/2020 S1 (PANSTARRS),e,13.7334,129.4612,254.9268,5.985339,0.0673087,0.50749502,25.4991,01/31.0/2022,2000,g 14.0,4.0
# From MPEC 2021-BE3
C/2020 S2 (PANSTARRS),e,22.3993,197.6728,202.2945,10.19916,0.0302592,0.82781259,12.2550,01/31.0/2022,2000,g 17.0,4.0
# From MPEC 2021-WD8
C/2020 S3 (Erasmus),e,19.9246,222.8061,349.9771,178.1047,0.0004147,0.99777088,0.0000,12/12.6776/2020,2000,g 13.5,3.2
# From MPEC 2022-A21
C/2020 S4 (PANSTARRS),h,02/09.3404/2023,20.5732,117.7204,21.0120,1.000447,3.369358,2000,8.5,3.2
# From MPEC 2021-BE3
P/2020 S5 (PANSTARRS),e,12.3531,316.0015,53.1026,4.051410,0.1208634,0.33859087,65.2987,01/31.0/2022,2000,g 14.5,4.0
# From MPEC 2021-P47
P/2020 S6 (Leonard),e,15.4594,242.5538,176.6699,3.600117,0.1442876,0.47931567,62.5250,01/31.0/2022,2000,g 16.0,4.0
# From MPEC 2021-BE3
P/2020 S7 (PANSTARRS),e,16.0918,328.0199,40.4725,5.025775,0.0874781,0.41067395,38.3711,01/31.0/2022,2000,g 14.5,4.0
# From MPEC 2021-P47
C/2020 S8 (Lemmon),e,108.5243,24.0555,160.3295,275.6249,0.0002154,0.99142434,0.0000,04/10.9199/2021,2000,g 12.5,4.0
# From MPEC 2021-WD8
C/2020 T2 (Palomar),e,27.8701,83.0445,150.4011,316.8104,0.0001748,0.99351387,0.0000,07/11.1789/2021,2000,g 11.0,3.2
# From MPEC 2021-N06
P/2020 T3 (PANSTARRS),e,7.2957,74.0078,357.0387,3.517497,0.1494010,0.59169462,56.1018,01/31.0/2022,2000,g 18.0,3.2
# From MPEC 2021-N06
C/2020 T4 (PANSTARRS),h,07/05.2615/2021,83.8162,50.6166,79.6101,1.000086,2.191885,2000,13.0,3.2
# From MPEC 2021-BE3
C/2020 T5 (Lemmon),e,66.5896,237.8595,90.3076,827.2530,0.0000414,0.99771594,0.0000,10/09.6035/2020,2000,g 16.0,4.0
# From MPEC 2021-N06
P/2020 U2 (PANSTARRS),e,6.4211,342.8991,84.6416,3.778124,0.1342115,0.51073768,53.8545,01/31.0/2022,2000,g 18.0,4.0
# From MPEC 2021-W31
C/2020 U3 (Rankin),e,30.1718,282.6769,124.2778,65.57280,0.0018562,0.96528627,0.6663,01/31.0/2022,2000,g 15.0,4.0
# From MPEC 2022-A21
C/2020 U4 (PANSTARRS),h,04/07.9398/2022,167.0359,120.0143,69.5294,1.001431,5.353700,2000,7.0,4.0
# From MPEC 2022-A21
C/2020 U5 (PANSTARRS),e,97.2707,107.3374,75.4157,6088,0.0000021,0.99938304,0.0000,04/27.8791/2022,2000,g  8.0,4.0
# From MPEC 2022-A21
C/2020 V2 (ZTF),h,05/08.5009/2023,131.6088,212.3614,162.4018,1.001187,2.228254,2000,4.9,4.0
# From MPEC 2021-N06
P/2020 V3 (PANSTARRS),e,23.0315,198.2633,249.3297,8.371553,0.0406907,0.25579134,14.5009,01/31.0/2022,2000,g  8.3,4.0
# From MPEC 2022-A21
P/2020 V4 (Rankin),e,14.2429,203.4966,256.9923,9.350987,0.0344681,0.44941221,6.7973,01/31.0/2022,2000,g  9.0,4.0
# From MPEC 2021-BE3
P/2020 W1 (Rankin),e,10.7911,124.2638,264.9106,7.204351,0.0509697,0.26587734,33.8998,01/31.0/2022,2000,g 10.0,4.0
# From MPEC 2021-BE3
C/2020 W5 (Lemmon),h,11/30.0816/2020,88.5833,75.5001,24.4813,1.000763,3.364329,2000,15.0,4.0
# From MPEC 2021-P47
P/2020 X1 (ATLAS),e,31.6946,56.0174,323.2979,4.527421,0.1023123,0.36550872,57.2462,01/31.0/2022,2000,g 13.0,4.0
# From MPEC 2021-U31
C/2020 X2 (ATLAS),e,18.1885,105.4522,347.3410,16.41297,0.0148226,0.76676903,6.5394,01/31.0/2022,2000,g 10.6,4.0
# From MPEC 2021-S45
C/2020 X4 (Leonard),e,80.6354,161.8898,140.2815,42.59810,0.0035450,0.87753645,1.5596,01/31.0/2022,2000,g  9.0,4.0
# From MPEC 2021-Y10
C/2020 Y2 (ATLAS),e,101.2964,26.5115,266.1000,1153,0.0000252,0.99728225,0.0000,06/17.6746/2022,2000,g  6.5,4.0
# From MPEC 2021-R75
C/2020 Y3 (ATLAS),e,83.1011,191.4343,342.0227,148.0654,0.0005470,0.98650055,0.0000,12/03.4402/2020,2000,g 13.5,4.0
# From MPEC 2022-A21
C/2021 A1 (Leonard),h,01/03.3002/2022,132.6865,255.8968,225.0934,1.000025,0.615254,2000,8.5,4.0
# From MPEC 2021-U31
C/2021 A2 (NEOWISE),e,106.9775,125.2330,338.8277,247.7694,0.0002527,0.99429846,0.0000,01/22.6005/2021,2000,g 13.5,4.0
# From MPEC 2021-R75
C/2021 A4 (NEOWISE),e,111.5603,307.0950,204.6923,43.03282,0.0034914,0.97336434,0.0000,03/20.0170/2021,2000,g 16.0,4.0
# From MPEC 2021-BE3
P/2021 A5 (PANSTARRS),e,18.1877,328.7680,61.1958,3.047031,0.1853057,0.13980301,82.4779,01/31.0/2022,2000,g 15.0,4.0
# From MPEC 2022-A21
C/2021 A6 (PANSTARRS),e,75.6116,164.0792,351.6972,10682,0.0000009,0.99925777,0.0000,05/04.2075/2021,2000,g  7.0,4.0
# From MPEC 2022-A21
C/2021 A7 (NEOWISE),e,78.1496,154.5182,356.0514,5113,0.0000027,0.99961517,0.0000,07/15.3003/2021,2000,g 10.0,4.0
# From MPEC 2021-P47
C/2021 A9 (PANSTARRS),h,12/01.4181/2023,158.0271,314.8417,211.4657,1.003951,7.759068,2000,6.0,4.0
# From MPEC 2021-N06
C/2021 A10 (NEOWISE),e,151.5638,188.3668,82.3625,97.09826,0.0010301,0.98691824,0.0000,03/15.3280/2021,2000,g 19.0,4.0
# From MPEC 2021-O56
C/2021 B2 (PANSTARRS),e,38.0912,120.5532,334.9653,350.2152,0.0001504,0.99282456,0.0000,05/04.2620/2021,2000,g 14.0,4.0
# From MPEC 2021-N06
C/2021 B3 (NEOWISE),e,119.4831,67.2866,293.5548,34.85793,0.0047891,0.93802902,1.5618,01/31.0/2022,2000,g 13.5,4.0
# From MPEC 2022-A21
C/2021 C1 (Rankin),e,143.0436,186.8955,336.2989,39865,0.0000001,0.99991269,0.0000,12/07.0999/2020,2000,g 11.5,4.0
# From MPEC 2021-U31
P/2021 C2 (PANSTARRS),e,21.9281,66.4809,78.7815,9.536844,0.0334655,0.48727535,11.4077,01/31.0/2022,2000,g 12.0,4.0
# From MPEC 2021-N06
C/2021 C3 (Catalina),e,122.1644,181.9246,357.1344,63.06004,0.0019682,0.96390643,0.6940,01/31.0/2022,2000,g 14.0,4.0
# From MPEC 2022-A21
C/2021 C4 (ATLAS),e,132.8485,194.2755,320.2313,14819,0.0000005,0.99969607,0.0000,01/17.0950/2021,2000,g  9.0,4.0
# From MPEC 2022-A21
C/2021 C5 (PANSTARRS),e,50.7850,323.6901,270.9173,4317,0.0000035,0.99924899,0.0000,02/11.0491/2023,2000,g  9.0,4.0
# From MPEC 2022-A21
C/2021 C6 (Lemmon),h,11/13.3146/2021,164.6257,332.1556,203.5599,1.001670,3.271212,2000,12.0,4.0
# From MPEC 2021-N06
C/2021 D1 (SWAN),e,31.4568,311.2694,72.2335,97.92322,0.0010171,0.99079025,0.0000,02/27.6321/2021,2000,g 13.0,4.0
# From MPEC 2022-A21
C/2021 D2 (ZTF),h,02/03.9832/2022,83.8306,305.6786,125.0304,1.001423,2.946289,2000,9.0,4.0
# From MPEC 2021-N06
A/2021 E2,e,167.4882,190.8173,342.4532,235.1355,0.0002734,0.99027063,0.0000,12/10.4658/2020,2000,g 15.0,2.0
# From MPEC 2022-A21
C/2021 E3 (ZTF),h,06/11.9062/2022,112.5567,104.4682,228.8451,1.000851,1.777434,2000,8.5,4.0
# From MPEC 2021-P47
A/2021 E4,e,116.3610,171.1734,48.2786,699.8423,0.0000532,0.99331845,0.0000,04/25.3337/2022,2000,g 13.5,2.0
# From MPEC 2022-A21
A/2021 F1,e,107.3242,203.4513,146.8225,235.9656,0.0002719,0.99578121,0.0000,04/06.8741/2022,2000,g 17.5,2.0
# From MPEC 2021-J72
C/2021 G1 (Leonard),e,131.5632,270.6972,107.4768,75.10921,0.0015141,0.95441862,0.2919,01/31.0/2022,2000,g 14.0,4.0
# From MPEC 2022-A21
C/2021 G2 (ATLAS),e,48.4731,221.1221,343.3719,3903,0.0000040,0.99872437,0.0000,09/10.0345/2024,2000,g  5.5,4.0
# From MPEC 2021-M86
C/2021 G3 (PANSTARRS),h,10/18.5574/2021,102.8815,147.4183,10.6423,1.001003,5.181098,2000,10.5,4.0
# From MPEC 2021-Y10
P/2021 HS (PANSTARRS),e,12.1710,262.3906,46.0854,4.194377,0.1147368,0.81011046,20.3794,01/31.0/2022,2000,g 22.0,4.0
# From MPEC 2021-R75
C/2021 J1 (Maury-Attard),e,92.7094,88.3175,147.3032,26.21045,0.0073450,0.93359962,2.5383,01/31.0/2022,2000,g 15.5,4.0
# From MPEC 2021-R75
C/2021 J2 (PANSTARRS),e,156.2092,23.3290,172.0546,117.7377,0.0007715,0.96002410,0.1007,01/31.0/2022,2000,g 12.0,4.0
# From MPEC 2021-S45
P/2021 J3 (ATLAS),e,14.5504,111.2080,125.9607,8.941945,0.0368601,0.45030926,34.6815,01/31.0/2022,2000,g  7.0,4.0
# From MPEC 2022-A21
C/2021 K1 (ATLAS),e,16.2759,140.9045,184.2830,12.70781,0.0217570,0.80345660,5.9074,01/31.0/2022,2000,g 11.0,4.0
# From MPEC 2021-R75
C/2021 K2 (MASTER),h,09/09.2678/2021,100.8377,282.2482,343.3356,1.000594,5.466738,2000,8.0,4.0
# From MPEC 2021-U31
C/2021 K3 (Catalina),h,02/02.6805/2022,134.7769,114.4509,181.9946,1.003309,5.229845,2000,10.0,4.0
# From MPEC 2021-W31
P/2021 L2 (Leonard),e,21.0687,266.6605,51.5244,4.051259,0.1208702,0.52153313,23.0287,01/31.0/2022,2000,g 17.0,4.0
# From MPEC 2021-WD8
C/2021 L3 (Borisov),h,02/14.0100/2022,78.5798,344.9683,91.6146,1.001229,8.457342,2000,6.0,4.0
# From MPEC 2021-R75
P/2021 L4 (PANSTARRS),e,16.9616,243.2246,234.5859,3.164935,0.1750479,0.11857394,154.0724,01/31.0/2022,2000,g 13.5,4.0
# From MPEC 2021-P47
P/2021 N1 (ZTF),e,11.5055,301.1655,21.1958,2.977104,0.1918726,0.67674541,45.7526,01/31.0/2022,2000,g 19.0,4.0
# From MPEC 2022-A21
P/2021 N2 (Fuls),e,13.0629,221.7424,177.3422,6.932831,0.0539931,0.45237223,4.2502,01/31.0/2022,2000,g  9.5,4.0
# From MPEC 2021-W31
C/2021 N3 (PANSTARRS),e,26.7501,337.4944,304.6363,161.1778,0.0004817,0.96458323,0.2552,01/31.0/2022,2000,g  8.5,4.0
# From MPEC 2022-A21
C/2021 O1 (Nishimura),e,27.5754,41.6063,74.4542,2932,0.0000062,0.99973163,0.0000,08/13.9314/2021,2000,g 10.5,4.0
# From MPEC 2022-A21
C/2021 O3 (PANSTARRS),h,04/21.0477/2022,56.7903,189.0195,299.9906,1.000113,0.287322,2000,10.5,4.0
# From MPEC 2021-W31
C/2021 P1 (PANSTARRS),e,51.6318,359.6744,40.3982,5355,0.0000025,0.99918318,0.0000,06/01.9679/2022,2000,g 11.0,4.0
# From MPEC 2021-W31
C/2021 P2 (PANSTARRS),e,150.0294,32.0068,76.5156,3742,0.0000043,0.99864476,0.0000,01/21.8207/2023,2000,g  9.0,4.0
# From MPEC 2021-W31
P/2021 P3 (PANSTARRS),e,27.1612,358.2391,334.1678,4.416971,0.1061738,0.33983664,26.0429,01/31.0/2022,2000,g 14.0,4.0
